[{"OBJECT_NAME":"TUSUR GO (RS78S)","OBJECT_ID":"2024-199AZ","EPOCH":"2026-03-09T22:48:41.341536","MEAN_MOTION":15.7089308,"ECCENTRICITY":0.00036127,"INCLINATION":97.3018,"RA_OF_ASC_NODE":306.7757,"ARG_OF_PERICENTER":269.724,"MEAN_ANOMALY":90.3609,"EPHEMERIS_TYPE":0,"CLASSIFICATION_TYPE":"U","NORAD_CAT_ID":61782,"ELEMENT_SET_NO":999,"REV_AT_EPOCH":11926,"BSTAR":0.0013446465,"MEAN_MOTION_DOT":0.00170473,"MEAN_MOTION_DDOT":0},{"OBJECT_NAME":"STARLINK-11314 [DTC]","OBJECT_ID":"2024-204E","EPOCH":"2026-03-09T22:52:11.378208","MEAN_MOTION":15.69711145,"ECCENTRICITY":0.00013586,"INCLINATION":53.1578,"RA_OF_ASC_NODE":355.1381,"ARG_OF_PERICENTER":59.0611,"MEAN_ANOMALY":301.054,"EPHEMERIS_TYPE":0,"CLASSIFICATION_TYPE":"U","NORAD_CAT_ID":61878,"ELEMENT_SET_NO":999,"REV_AT_EPOCH":7695,"BSTAR":-2.4586804e-5,"MEAN_MOTION_DOT":-3.567e-5,"MEAN_MOTION_DDOT":0}]
